[
    {
        "Altitude(m)": 702873.1706666948,
        "Argument of Periapsis(deg)": 0.007973084830638947,
        "Eccentricity": 0.0,
        "Inclination(deg)": 45.0,
        "Latitude(deg)": 5.677881735781499,
        "Longitude(deg)": -134.8572150922002,
        "Mean Anomaly(deg)": 8.073251653236582,
        "RAAN(deg)": 319.99247364097926,
        "Satellite Name": "Constellation 1 1408",
        "Satellite Number": 1408,
        "Semi-Major Axis(m)": 7083131.272910544,
        "Time(s)": 133
    },
    {
        "Altitude(m)": 702870.3128756883,
        "Argument of Periapsis(deg)": 0.008033032836884352,
        "Eccentricity": 0.0,
        "Inclination(deg)": 45.0,
        "Latitude(deg)": 5.720887770831595,
        "Longitude(deg)": -134.8180342458631,
        "Mean Anomaly(deg)": 8.133952793486468,
        "RAAN(deg)": 319.9924170518137,
        "Satellite Name": "Constellation 1 1408",
        "Satellite Number": 1408,
        "Semi-Major Axis(m)": 7083131.272910544,
        "Time(s)": 134
    },
    {
        "Altitude(m)": 702867.4757684885,
        "Argument of Periapsis(deg)": 0.008092980843129758,
        "Eccentricity": 0.0,
        "Inclination(deg)": 45.0,
        "Latitude(deg)": 5.76389053019393,
        "Longitude(deg)": -134.77884688242355,
        "Mean Anomaly(deg)": 8.194653933736355,
        "RAAN(deg)": 319.99236046264815,
        "Satellite Name": "Constellation 1 1408",
        "Satellite Number": 1408,
        "Semi-Major Axis(m)": 7083131.272910544,
        "Time(s)": 135
    },
    {
        "Altitude(m)": 702864.6593391224,
        "Argument of Periapsis(deg)": 0.008152928849375162,
        "Eccentricity": 0.0,
        "Inclination(deg)": 45.0,
        "Latitude(deg)": 5.806889988080688,
        "Longitude(deg)": -134.73965295258424,
        "Mean Anomaly(deg)": 8.255355073986292,
        "RAAN(deg)": 319.9923038734825,
        "Satellite Name": "Constellation 1 1408",
        "Satellite Number": 1408,
        "Semi-Major Axis(m)": 7083131.272910544,
        "Time(s)": 136
    },
    {
        "Altitude(m)": 702861.8635815368,
        "Argument of Periapsis(deg)": 0.008212876855620568,
        "Eccentricity": 0.0,
        "Inclination(deg)": 45.0,
        "Latitude(deg)": 5.849886118691434,
        "Longitude(deg)": -134.70045240703294,
        "Mean Anomaly(deg)": 8.316056214236179,
        "RAAN(deg)": 319.99224728431693,
        "Satellite Name": "Constellation 1 1408",
        "Satellite Number": 1408,
        "Semi-Major Axis(m)": 7083131.272910544,
        "Time(s)": 137
    },
    {
        "Altitude(m)": 702859.0884895764,
        "Argument of Periapsis(deg)": 0.008272824861865974,
        "Eccentricity": 0.0,
        "Inclination(deg)": 45.0,
        "Latitude(deg)": 5.892878896213051,
        "Longitude(deg)": -134.66124519644322,
        "Mean Anomaly(deg)": 8.376757354486065,
        "RAAN(deg)": 319.9921906951514,
        "Satellite Name": "Constellation 1 1408",
        "Satellite Number": 1408,
        "Semi-Major Axis(m)": 7083131.272910544,
        "Time(s)": 138
    },
    {
        "Altitude(m)": 702856.3340570068,
        "Argument of Periapsis(deg)": 0.00833277286811138,
        "Eccentricity": 0.0,
        "Inclination(deg)": 45.0,
        "Latitude(deg)": 5.935868294819613,
        "Longitude(deg)": -134.62203127147373,
        "Mean Anomaly(deg)": 8.437458494736001,
        "RAAN(deg)": 319.9921341059858,
        "Satellite Name": "Constellation 1 1408",
        "Satellite Number": 1408,
        "Semi-Major Axis(m)": 7083131.272910544,
        "Time(s)": 139
    },
    {
        "Altitude(m)": 702853.6002774906,
        "Argument of Periapsis(deg)": 0.008392720874356788,
        "Eccentricity": 0.0,
        "Inclination(deg)": 45.0,
        "Latitude(deg)": 5.97885428867232,
        "Longitude(deg)": -134.5828105827684,
        "Mean Anomaly(deg)": 8.498159634985887,
        "RAAN(deg)": 319.9920775168203,
        "Satellite Name": "Constellation 1 1408",
        "Satellite Number": 1408,
        "Semi-Major Axis(m)": 7083131.272910544,
        "Time(s)": 140
    },
    {
        "Altitude(m)": 702850.8871446128,
        "Argument of Periapsis(deg)": 0.008452668880602192,
        "Eccentricity": 0.0,
        "Inclination(deg)": 45.0,
        "Latitude(deg)": 6.021836851919631,
        "Longitude(deg)": -134.54358324905309,
        "Mean Anomaly(deg)": 8.558860775235775,
        "RAAN(deg)": 319.9920209276547,
        "Satellite Name": "Constellation 1 1408",
        "Satellite Number": 1408,
        "Semi-Major Axis(m)": 7083131.272910544,
        "Time(s)": 141
    },
    {
        "Altitude(m)": 702848.1946518519,
        "Argument of Periapsis(deg)": 0.008512616886847598,
        "Eccentricity": 0.0,
        "Inclination(deg)": 45.0,
        "Latitude(deg)": 6.064815958696199,
        "Longitude(deg)": -134.50434888474783,
        "Mean Anomaly(deg)": 8.619561915485662,
        "RAAN(deg)": 319.9919643384891,
        "Satellite Name": "Constellation 1 1408",
        "Satellite Number": 1408,
        "Semi-Major Axis(m)": 7083131.272910544,
        "Time(s)": 142
    },
    {
        "Altitude(m)": 702845.5227926159,
        "Argument of Periapsis(deg)": 0.008572564893093004,
        "Eccentricity": 0.0,
        "Inclination(deg)": 45.0,
        "Latitude(deg)": 6.107791583124239,
        "Longitude(deg)": -134.4651076085484,
        "Mean Anomaly(deg)": 8.6802630557356,
        "RAAN(deg)": 319.99190774932356,
        "Satellite Name": "Constellation 1 1408",
        "Satellite Number": 1408,
        "Semi-Major Axis(m)": 7083131.272910544,
        "Time(s)": 143
    },
    {
        "Altitude(m)": 702842.8715602004,
        "Argument of Periapsis(deg)": 0.008632512899338408,
        "Eccentricity": 0.0,
        "Inclination(deg)": 45.0,
        "Latitude(deg)": 6.150763699312459,
        "Longitude(deg)": -134.42585937103846,
        "Mean Anomaly(deg)": 8.740964195985486,
        "RAAN(deg)": 319.991851160158,
        "Satellite Name": "Constellation 1 1408",
        "Satellite Number": 1408,
        "Semi-Major Axis(m)": 7083131.272910544,
        "Time(s)": 144
    },
    {
        "Altitude(m)": 702840.2409478299,
        "Argument of Periapsis(deg)": 0.008692460905583814,
        "Eccentricity": 0.0,
        "Inclination(deg)": 45.0,
        "Latitude(deg)": 6.193732281356199,
        "Longitude(deg)": -134.38660412278628,
        "Mean Anomaly(deg)": 8.801665336235372,
        "RAAN(deg)": 319.99179457099245,
        "Satellite Name": "Constellation 1 1408",
        "Satellite Number": 1408,
        "Semi-Major Axis(m)": 7083131.272910544,
        "Time(s)": 145
    },
    {
        "Altitude(m)": 702837.6309486198,
        "Argument of Periapsis(deg)": 0.00875240891182922,
        "Eccentricity": 0.0,
        "Inclination(deg)": 45.0,
        "Latitude(deg)": 6.236697303337356,
        "Longitude(deg)": -134.34734181434476,
        "Mean Anomaly(deg)": 8.86236647648531,
        "RAAN(deg)": 319.9917379818269,
        "Satellite Name": "Constellation 1 1408",
        "Satellite Number": 1408,
        "Semi-Major Axis(m)": 7083131.272910544,
        "Time(s)": 146
    },
    {
        "Altitude(m)": 702835.0415556143,
        "Argument of Periapsis(deg)": 0.008812356918074627,
        "Eccentricity": 0.0,
        "Inclination(deg)": 45.0,
        "Latitude(deg)": 6.279658739324265,
        "Longitude(deg)": -134.30807239625148,
        "Mean Anomaly(deg)": 8.923067616735196,
        "RAAN(deg)": 319.99168139266123,
        "Satellite Name": "Constellation 1 1408",
        "Satellite Number": 1408,
        "Semi-Major Axis(m)": 7083131.272910544,
        "Time(s)": 147
    },
    {
        "Altitude(m)": 702832.4727617516,
        "Argument of Periapsis(deg)": 0.008872304924320031,
        "Eccentricity": 0.0,
        "Inclination(deg)": 45.0,
        "Latitude(deg)": 6.322616563371873,
        "Longitude(deg)": -134.26879598712492,
        "Mean Anomaly(deg)": 8.983768756985082,
        "RAAN(deg)": 319.9916248034957,
        "Satellite Name": "Constellation 1 1408",
        "Satellite Number": 1408,
        "Semi-Major Axis(m)": 7083131.272910544,
        "Time(s)": 148
    },
    {
        "Altitude(m)": 702829.92455989,
        "Argument of Periapsis(deg)": 0.008932252930565437,
        "Eccentricity": 0.0,
        "Inclination(deg)": 45.0,
        "Latitude(deg)": 6.365570749520652,
        "Longitude(deg)": -134.22951220127732,
        "Mean Anomaly(deg)": 9.044469897234968,
        "RAAN(deg)": 319.99156821433013,
        "Satellite Name": "Constellation 1 1408",
        "Satellite Number": 1408,
        "Semi-Major Axis(m)": 7083131.272910544,
        "Time(s)": 149
    },
    {
        "Altitude(m)": 702827.3969427891,
        "Argument of Periapsis(deg)": 0.008992200936810843,
        "Eccentricity": 0.0,
        "Inclination(deg)": 45.0,
        "Latitude(deg)": 6.408521271797941,
        "Longitude(deg)": -134.190221157296,
        "Mean Anomaly(deg)": 9.105171037484855,
        "RAAN(deg)": 319.99151162516455,
        "Satellite Name": "Constellation 1 1408",
        "Satellite Number": 1408,
        "Semi-Major Axis(m)": 7083131.272910544,
        "Time(s)": 150
    },
    {
        "Altitude(m)": 702824.8899031237,
        "Argument of Periapsis(deg)": 0.009052148943056249,
        "Eccentricity": 0.0,
        "Inclination(deg)": 45.0,
        "Latitude(deg)": 6.451468104217001,
        "Longitude(deg)": -134.1509228056551,
        "Mean Anomaly(deg)": 9.165872177734741,
        "RAAN(deg)": 319.991455035999,
        "Satellite Name": "Constellation 1 1408",
        "Satellite Number": 1408,
        "Semi-Major Axis(m)": 7083131.272910544,
        "Time(s)": 151
    }
]